[
    {
        "Altitude(m)": 611967.1431956544,
        "Argument of Periapsis(deg)": 0.0,
        "Eccentricity": 0.0,
        "Inclination(deg)": 60.0,
        "Latitude(deg)": 59.140053249815026,
        "Longitude(deg)": -93.90789943970586,
        "Mean Anomaly(deg)": 98.18179999999998,
        "RAAN(deg)": 260.0,
        "Satellite Name": "Test1 1150",
        "Satellite Number": 1150,
        "Semi-Major Axis(m)": 6980739.136638005,
        "Time(s)": 0
    },
    {
        "Altitude(m)": 611934.34279641,
        "Argument of Periapsis(deg)": 0.00010418945913296404,
        "Eccentricity": 0.0,
        "Inclination(deg)": 60.0,
        "Latitude(deg)": 58.986414948192845,
        "Longitude(deg)": -92.78465749700304,
        "Mean Anomaly(deg)": 98.80190614546184,
        "RAAN(deg)": 259.99957995086027,
        "Satellite Name": "Test1 1150",
        "Satellite Number": 1150,
        "Semi-Major Axis(m)": 6980739.136638005,
        "Time(s)": 10
    }
]